STARLINK-32434          
1 61913U 24207B   26177.98403390  .00012373  00000+0  45858-3 0  9992
2 61913  43.0009  24.8192 0001492 271.8281  88.2400 15.27566279 91438
STARLINK-32460          
1 61914U 24207C   26177.92878752  .00026879  00000+0  98194-3 0  9992
2 61914  42.9988  24.4008 0001389 281.2528  78.8167 15.27605919 91439
STARLINK-32559          
1 61915U 24207D   26178.25002315  .00759661  00000+0  19838-1 0  9992
2 61915  43.0004  22.4802 0001904 289.5016  83.0525 15.35801379  5862
STARLINK-32541          
1 61916U 24207E   26178.04636622  .00028716  00000+0  10494-2 0  9994
2 61916  43.0038  27.8857 0001354 276.8160  83.2538 15.27567891 91407
STARLINK-32544          
1 61917U 24207F   26177.88523460  .00026439  00000+0  96731-3 0  9990
2 61917  43.0034  24.9327 0001346 260.1123  99.9577 15.27564155 91429
STARLINK-32555          
1 61918U 24207G   26177.99254185  .00017176  00000+0  63244-3 0  9999
2 61918  43.0023  28.3400 0001647 284.2340  75.8328 15.27569466 91393
STARLINK-32547          
1 61919U 24207H   26178.25699769  .00022964  00000+0  84162-3 0  9994
2 61919  42.9990  22.5639 0001104 269.4343  90.6382 15.27572513 91472
STARLINK-32616          
1 61920U 24207J   26178.29169193  .00023380  00000+0  85658-3 0  9997
2 61920  43.0035  22.8240 0001625 271.6766  88.3900 15.27574610 91480
STARLINK-32605          
1 61921U 24207K   26178.27370082  .00021575  00000+0  79130-3 0  9999
2 61921  43.0005  22.6863 0001295 275.9617  84.1087 15.27577045 91487
STARLINK-32579          
1 61922U 24207L   26177.97712319  .00022158  00000+0  81276-3 0  9991
2 61922  43.0039  28.2242 0001250 266.4398  93.6311 15.27561443 91390
STARLINK-32537          
1 61923U 24207M   26177.86435748  .00026421  00000+0  96607-3 0  9999
2 61923  43.0003  29.0937 0001493 271.1729  88.8951 15.27584919 91379
STARLINK-32564          
1 61924U 24207N   26177.98870775  .00040578  00000+0  14765-2 0  9999
2 61924  43.0004  28.3090 0000867 279.8768  80.1986 15.27568380 91394
STARLINK-32536          
1 61925U 24207P   26177.86818414 -.00000975  00000+0 -25939-4 0  9995
2 61925  42.9986  29.1221 0000709 243.7697 116.3081 15.27581919 91372
STARLINK-32624          
1 61926U 24207Q   26177.98902748  .00014729  00000+0  54391-3 0  9996
2 61926  42.9984  23.9910 0001046 254.4462 105.6274 15.27566126 91448
STARLINK-32622          
1 61927U 24207R   26178.25827269  .00027069  00000+0  99038-3 0  9990
2 61927  42.9990  22.5721 0001434 269.3635  90.7052 15.27553609 91483
STARLINK-32620          
1 61928U 24207S   26178.28783359  .00019234  00000+0  70663-3 0  9993
2 61928  43.0032  22.7924 0001539 272.2547  87.8129 15.27581104 91484
STARLINK-32609          
1 61929U 24207T   26178.28012506  .00027576  00000+0  10078-2 0  9994
2 61929  43.0029  22.7327 0001695 266.4495  93.6163 15.27583481 91481
STARLINK-32567          
1 61930U 24207U   26177.83703368  .00018519  00000+0  68109-3 0  9995
2 61930  43.0026  21.9533 0001513 287.5378  72.5308 15.27566100 92042
STARLINK-32420          
1 61931U 24207V   26178.26599097  .00017972  00000+0  66115-3 0  9993
2 61931  42.9996  22.6298 0001054 269.1535  90.9196 15.27573310 91481
STARLINK-32354          
1 61932U 24207W   26177.98483119  .00026084  00000+0  95434-3 0  9999
2 61932  43.0037  28.2794 0001708 285.8307  74.2356 15.27569702 91888
STARLINK-32361          
1 61933U 24207X   26177.98660086  .00020439  00000+0  74939-3 0  9995
2 61933  42.9998  24.8129 0001487 270.1686  89.8995 15.27615278 91430
STARLINK-32500          
1 61935U 24207Z   26177.97326798  .00029937  00000+0  10934-2 0  9991
2 61935  43.0039  28.1915 0001634 266.4138  93.6527 15.27566708 91396
HAIYANG 4-01            
1 61936U 24208A   26178.31193865  .00000483  00000+0  82428-4 0  9993
2 61936  98.0029 185.9303 0002400 107.3052 252.8419 14.73308575 86938
STARLINK-11407 [DTC]    
1 61939U 24209A   26178.28166664  .00120472  00000+0  98473-3 0  9997
2 61939  53.1560 190.7885 0001688  44.1994 315.9158 15.69712761 93955
STARLINK-11337 [DTC]    
1 61940U 24209B   26178.27676327  .00176822  00000+0  14330-2 0  9999
2 61940  53.1560 190.7563 0002336  33.8798 326.2369 15.69717146 93937
STARLINK-11353 [DTC]    
1 61941U 24209C   26178.27185663  .00136993  00000+0  11143-2 0  9992
2 61941  53.1562 190.7230 0000963  99.1479 260.9648 15.69768264 93892
STARLINK-11320 [DTC]    
1 61942U 24209D   26178.20338157  .00203382  00000+0  16397-2 0  9997
2 61942  53.1558 191.7365 0000986 115.0146 245.0974 15.69755491 93874
STARLINK-11425 [DTC]    
1 61943U 24209E   26178.19847806  .00134285  00000+0  10922-2 0  9995
2 61943  53.1556 191.7046 0001661  17.1755 342.9318 15.69780040 93875
STARLINK-11422 [DTC]    
1 61944U 24209F   26178.32091056  .00159109  00000+0  12923-2 0  9994
2 61944  53.1567 191.0450 0001324  66.9938 293.1220 15.69725904 93890
STARLINK-11421 [DTC]    
1 61945U 24209G   26178.31600412  .00177195  00000+0  14351-2 0  9998
2 61945  53.1570 191.0131 0001332  68.9451 291.1709 15.69731770 93890
